NORAD_CAT_ID,OBJECT_NAME,OBJECT_TYPE,EPOCH,MEAN_MOTION,ECCENTRICITY,INCLINATION,RA_OF_ASC_NODE,ARG_OF_PERICENTER,MEAN_ANOMALY,BSTAR,MEAN_MOTION_DOT,MEAN_MOTION_DDOT,TLE_LINE0,TLE_LINE1,TLE_LINE2,SEMIMAJOR_AXIS,PERIOD,APOGEE,PERIGEE,DECAYED
49156.0,STARLINK-3085,PAYLOAD,2023-07-06 10:38:38,14.98331449,0.0003914,69.999,198.4314,267.5012,92.5699,6.2801e-05,6.56e-06,0.0,0 STARLINK-3085,1 49156U 21082AC  23187.44349567  .00000656  00000-0  62801-4 0  9999,2 49156  69.9990 198.4314 0003914 267.5012  92.5699 14.98331449101669,6950.188,96.107,574.774,569.333,0.0
49156.0,STARLINK-3085,PAYLOAD,2023-07-07 10:40:39,14.98330922,0.0003926,69.9989,195.9063,267.0018,93.0692,2.9461e-05,2.58e-06,0.0,0 STARLINK-3085,1 49156U 21082AC  23188.44489657  .00000258  00000-0  29461-4 0  9998,2 49156  69.9989 195.9063 0003926 267.0018  93.0692 14.98330922101815,6950.19,96.107,574.784,569.326,0.0
49156.0,STARLINK-3085,PAYLOAD,2023-07-08 17:07:12,14.98331673,0.0003915,69.9989,192.7083,266.9011,93.17,1.5373e-05,9e-07,0.0,0 STARLINK-3085,1 49156U 21082AC  23189.71333504  .00000090  00000-0  15373-4 0  9999,2 49156  69.9989 192.7083 0003915 266.9011  93.1700 14.98331673102008,6950.188,96.107,574.774,569.332,0.0
49156.0,STARLINK-3085,PAYLOAD,2023-07-10 02:46:01,14.983292,0.0003853,69.9989,189.1737,267.1232,92.9486,7.0979e-07,-8.5e-07,0.0,0 STARLINK-3085,1 49156U 21082AC  23191.11529666 -.00000085  00000-0  70979-6 0  9992,2 49156  69.9989 189.1737 0003853 267.1232  92.9486 14.98329200102217,6950.195,96.107,574.738,569.382,0.0
49156.0,STARLINK-3085,PAYLOAD,2023-07-11 09:12:34,14.98329962,0.0003852,69.9992,185.9758,266.8151,93.2568,2.3152e-05,1.83e-06,0.0,0 STARLINK-3085,1 49156U 21082AC  23192.38373592  .00000183  00000-0  23152-4 0  9994,2 49156  69.9992 185.9758 0003852 266.8151  93.2568 14.98329962102404,6950.193,96.107,574.735,569.381,0.0
49156.0,STARLINK-3085,PAYLOAD,2023-07-12 09:14:35,14.98334352,0.0003871,69.9991,183.4508,266.3442,93.7275,8.2143e-05,8.87e-06,0.0,0 STARLINK-3085,1 49156U 21082AC  23193.38513049  .00000887  00000-0  82143-4 0  9994,2 49156  69.9991 183.4508 0003871 266.3442  93.7275 14.98334352102553,6950.179,96.107,574.735,569.354,0.0
49156.0,STARLINK-3085,PAYLOAD,2023-07-13 12:28:52,14.98329857,0.0003843,69.9992,180.5895,266.1857,93.8863,1.4664e-05,8.2e-07,0.0,0 STARLINK-3085,1 49156U 21082AC  23194.52005481  .00000082  00000-0  14664-4 0  9997,2 49156  69.9992 180.5895 0003843 266.1857  93.8863 14.98329857102725,6950.193,96.107,574.729,569.387,0.0
49156.0,STARLINK-3085,PAYLOAD,2023-07-14 15:43:09,14.98333998,0.0003778,69.9993,177.7282,266.1115,93.9612,4.234e-05,4.12e-06,0.0,0 STARLINK-3085,1 49156U 21082AC  23195.65497057  .00000412  00000-0  42340-4 0  9995,2 49156  69.9993 177.7282 0003778 266.1115  93.9612 14.98333998102890,6950.181,96.107,574.671,569.42,0.0
49156.0,STARLINK-3085,PAYLOAD,2023-07-15 15:45:10,14.98333439,0.000371,69.9996,175.202,269.898,90.1754,8.7672e-07,-8.3e-07,0.0,0 STARLINK-3085,1 49156U 21082AC  23196.65636922 -.00000083  00000-0  87672-6 0  9996,2 49156  69.9996 175.2020 0003710 269.8980  90.1754 14.98333439103046,6950.182,96.107,574.626,569.469,0.0
49156.0,STARLINK-3085,PAYLOAD,2023-07-16 01:21:59,14.98323166,0.0003652,69.9996,174.1935,267.5488,92.5253,-5.7227e-05,-7.76e-06,0.0,0 STARLINK-3085,1 49156U 21082AC  23197.05693775 -.00000776  00000-0 -57227-4 0  9991,2 49156  69.9996 174.1935 0003652 267.5488  92.5253 14.98323166103105,6950.214,96.107,574.617,569.541,0.0
49156.0,STARLINK-3085,PAYLOAD,2023-07-16 07:46:32,14.98313305,0.0003724,69.9993,173.5202,267.1961,92.8772,-0.00016471,-2.057e-05,0.0,0 STARLINK-3085,1 49156U 21082AC  23197.32398754 -.00002057  00000-0 -16471-3 0  9999,2 49156  69.9993 173.5202 0003724 267.1961  92.8772 14.98313305103141,6950.245,96.108,574.698,569.521,0.0
49156.0,STARLINK-3085,PAYLOAD,2023-07-16 15:47:12,14.98324833,0.000368,69.9998,172.6777,266.6291,93.4447,-0.00034788,-4.241e-05,0.0,0 STARLINK-3085,1 49156U 21082AC  23197.65778719 -.00004241  00000-0 -34788-3 0  9996,2 49156  69.9998 172.6777 0003680 266.6291  93.4447 14.98324833103193,6950.209,96.107,574.632,569.516,0.0
49156.0,STARLINK-3085,PAYLOAD,2023-07-17 15:49:13,14.98319015,0.000354,69.9996,170.1542,264.1489,95.9267,6.454e-05,6.77e-06,0.0,0 STARLINK-3085,1 49156U 21082AC  23198.65918824  .00000677  00000-0  64540-4 0  9997,2 49156  69.9996 170.1542 0003540 264.1489  95.9267 14.98319015103341,6950.227,96.108,574.552,569.631,0.0
49156.0,STARLINK-3085,PAYLOAD,2023-07-18 07:50:33,14.98328923,0.0003557,69.9994,168.471,262.8889,97.1866,0.0001902,2.177e-05,0.0,0 STARLINK-3085,1 49156U 21082AC  23199.32678129  .00002177  00000-0  19020-3 0  9992,2 49156  69.9994 168.4710 0003557 262.8889  97.1866 14.98328923103441,6950.196,96.107,574.533,569.589,0.0
49156.0,STARLINK-3085,PAYLOAD,2023-07-19 07:52:33,14.98342988,0.0003722,69.9995,165.946,264.1963,95.8772,0.00031023,3.612e-05,0.0,0 STARLINK-3085,1 49156U 21082AC  23200.32816911  .00003612  00000-0  31023-3 0  9990,2 49156  69.9995 165.9460 0003722 264.1963  95.8772 14.98342988103592,6950.153,96.106,574.605,569.431,0.0
49156.0,STARLINK-3085,PAYLOAD,2023-07-20 07:54:35,14.98332791,0.0003528,70.0001,163.4227,256.8413,103.2353,-9.3742e-06,-2.05e-06,0.0,0 STARLINK-3085,1 49156U 21082AC  23201.32957922 -.00000205  00000-0 -93742-5 0  9994,2 49156  70.0001 163.4227 0003528 256.8413 103.2353 14.98332791103746,6950.184,96.107,574.501,569.597,0.0
49156.0,STARLINK-3085,PAYLOAD,2023-07-21 01:32:03,14.98335277,0.0003417,70.0004,161.5714,251.0741,109.0048,0.00010495,1.16e-05,0.0,0 STARLINK-3085,1 49156U 21082AC  23202.06392924  .00001160  00000-0  10495-3 0  9992,2 49156  70.0004 161.5714 0003417 251.0741 109.0048 14.98335277103856,6950.177,96.107,574.416,569.667,0.0
49156.0,STARLINK-3085,PAYLOAD,2023-07-21 07:56:34,14.98355695,0.0002462,70.0007,160.8973,286.851,73.2379,0.00015037,1.703e-05,0.0,0 STARLINK-3085,1 49156U 21082AC  23202.33096014  .00001703  00000-0  15037-3 0  9993,2 49156  70.0007 160.8973 0002462 286.8510  73.2379 14.98355695103896,6950.113,96.105,573.69,570.267,0.0
49156.0,STARLINK-3085,PAYLOAD,2023-07-24 08:02:39,14.98325736,0.0002284,70.001,153.3252,269.8025,90.2872,0.00015127,1.712e-05,0.0,0 STARLINK-3085,1 49156U 21082AC  23205.33517474  .00001712  00000-0  15127-3 0  9994,2 49156  70.0010 153.3252 0002284 269.8025  90.2872 14.98325736104342,6950.206,96.107,573.659,570.484,0.0
49156.0,STARLINK-3085,PAYLOAD,2023-07-25 08:04:39,14.98332197,0.000304,70.0003,150.7998,268.9802,91.1009,4.1666e-05,4.04e-06,0.0,0 STARLINK-3085,1 49156U 21082AC  23206.33657111  .00000404  00000-0  41666-4 0  9993,2 49156  70.0003 150.7998 0003040 268.9802  91.1009 14.98332197104493,6950.186,96.107,574.164,569.938,0.0
49156.0,STARLINK-3085,PAYLOAD,2023-07-26 03:18:16,14.98334174,0.00029,70.0004,148.7802,269.0081,91.0746,8.6059e-05,9.34e-06,0.0,0 STARLINK-3085,1 49156U 21082AC  23207.13768881  .00000934  00000-0  86059-4 0  9992,2 49156  70.0004 148.7802 0002900 269.0081  91.0746 14.98334174104618,6950.18,96.107,574.061,570.029,0.0
49156.0,STARLINK-3085,PAYLOAD,2023-07-26 06:30:32,14.98335311,0.0002891,70.0005,148.4437,268.9822,91.1005,9.6654e-05,1.061e-05,0.0,0 STARLINK-3085,1 49156U 21082AC  23207.27120758  .00001061  00000-0  96654-4 0  9996,2 49156  70.0005 148.4437 0002891 268.9822  91.1005 14.98335311104635,6950.176,96.107,574.051,570.032,0.0
49156.0,STARLINK-3085,PAYLOAD,2023-07-27 00:08:00,14.98336627,0.0002963,70.0005,146.5913,267.5246,92.5574,9.4877e-05,1.039e-05,0.0,0 STARLINK-3085,1 49156U 21082AC  23208.00556433  .00001039  00000-0  94877-4 0  9991,2 49156  70.0005 146.5913 0002963 267.5246  92.5574 14.98336627104747,6950.172,96.107,574.097,569.978,0.0
49156.0,STARLINK-3085,PAYLOAD,2023-07-27 08:08:40,14.98343286,0.0002974,70.0002,145.7488,268.6971,91.3847,0.00016088,1.828e-05,0.0,0 STARLINK-3085,1 49156U 21082AC  23208.33935675  .00001828  00000-0  16088-3 0  9999,2 49156  70.0002 145.7488 0002974 268.6971  91.3847 14.98343286104795,6950.152,96.106,574.084,569.95,0.0
49156.0,STARLINK-3085,PAYLOAD,2023-07-27 19:21:37,14.98326633,0.0002125,69.9977,144.5621,269.7238,90.3678,-1.8257e-05,-3.11e-06,0.0,0 STARLINK-3085,1 49156U 21082AC  23208.80668945 -.00000311  00000-0 -18257-4 0  9993,2 49156  69.9977 144.5621 0002125 269.7238  90.3678 14.98326633104861,6950.203,96.107,573.545,570.591,0.0
49156.0,STARLINK-3085,PAYLOAD,2023-07-28 00:10:02,14.98322007,0.0002864,70.0008,144.0665,267.079,93.0041,-7.6878e-05,-1.01e-05,0.0,0 STARLINK-3085,1 49156U 21082AC  23209.00697691 -.00001010  00000-0 -76878-4 0  9996,2 49156  70.0008 144.0665 0002864 267.0790  93.0041 14.98322007104894,6950.218,96.108,574.073,570.092,0.0
49156.0,STARLINK-3085,PAYLOAD,2023-07-28 12:59:07,14.98327728,0.0002887,70.0009,142.72,268.9466,91.1362,-2.765e-05,-4.23e-06,0.0,0 STARLINK-3085,1 49156U 21082AC  23209.54105410 -.00000423  00000-0 -27650-4 0  9999,2 49156  70.0009 142.7200 0002887 268.9466  91.1362 14.98327728104979,6950.2,96.107,574.071,570.058,0.0
49156.0,STARLINK-3085,PAYLOAD,2023-07-29 01:48:10,14.98339221,0.0002764,70.0006,141.373,264.6081,95.4763,2.3637e-05,1.89e-06,0.0,0 STARLINK-3085,1 49156U 21082AC  23210.07512568  .00000189  00000-0  23637-4 0  9993,2 49156  70.0006 141.3730 0002764 264.6081  95.4763 14.98339221105052,6950.164,96.106,573.95,570.108,0.0
49156.0,STARLINK-3085,PAYLOAD,2023-07-29 19:25:39,14.98327299,0.0003015,70.0005,139.5214,271.6261,88.4553,0.00024154,2.79e-05,0.0,0 STARLINK-3085,1 49156U 21082AC  23210.80948994  .00002790  00000-0  24154-3 0  9994,2 49156  70.0005 139.5214 0003015 271.6261  88.4553 14.98327299105168,6950.201,96.107,574.162,569.971,0.0
49156.0,STARLINK-3085,PAYLOAD,2023-07-30 06:38:35,14.98335554,0.0003012,70.0005,138.3425,269.6735,90.4079,0.00026451,3.065e-05,0.0,0 STARLINK-3085,1 49156U 21082AC  23211.27680496  .00003065  00000-0  26451-3 0  9994,2 49156  70.0005 138.3425 0003012 269.6735  90.4079 14.98335554105236,6950.176,96.107,574.134,569.947,0.0
